[{"OBJECT_NAME":"HULIANWANG DIGUI-113","OBJECT_ID":"2025-285J","EPOCH":"2026-03-03T18:47:26.401344","MEAN_MOTION":13.29331356,"ECCENTRICITY":4.69e-6,"INCLINATION":50.0097,"RA_OF_ASC_NODE":163.6982,"ARG_OF_PERICENTER":332.8295,"MEAN_ANOMALY":27.2574,"EPHEMERIS_TYPE":0,"CLASSIFICATION_TYPE":"U","NORAD_CAT_ID":66923,"ELEMENT_SET_NO":999,"REV_AT_EPOCH":1204,"BSTAR":-0.00018133048,"MEAN_MOTION_DOT":-2.08e-6,"MEAN_MOTION_DDOT":0},{"OBJECT_NAME":"HULIANWANG DIGUI-114","OBJECT_ID":"2025-287A","EPOCH":"2026-03-03T23:29:41.553888","MEAN_MOTION":13.24415583,"ECCENTRICITY":0.00019777,"INCLINATION":86.4977,"RA_OF_ASC_NODE":317.9386,"ARG_OF_PERICENTER":80.9212,"MEAN_ANOMALY":279.2146,"EPHEMERIS_TYPE":0,"CLASSIFICATION_TYPE":"U","NORAD_CAT_ID":66953,"ELEMENT_SET_NO":999,"REV_AT_EPOCH":1141,"BSTAR":0.00014500254,"MEAN_MOTION_DOT":7.7e-7,"MEAN_MOTION_DDOT":0},{"OBJECT_NAME":"HULIANWANG DIGUI-115","OBJECT_ID":"2025-287B","EPOCH":"2026-03-03T21:29:59.989344","MEAN_MOTION":13.24415666,"ECCENTRICITY":0.00020588,"INCLINATION":86.4993,"RA_OF_ASC_NODE":317.9755,"ARG_OF_PERICENTER":80.5993,"MEAN_ANOMALY":279.5374,"EPHEMERIS_TYPE":0,"CLASSIFICATION_TYPE":"U","NORAD_CAT_ID":66954,"ELEMENT_SET_NO":999,"REV_AT_EPOCH":1140,"BSTAR":0.00018397864,"MEAN_MOTION_DOT":9.4e-7,"MEAN_MOTION_DDOT":0},{"OBJECT_NAME":"HULIANWANG DIGUI-116","OBJECT_ID":"2025-287C","EPOCH":"2026-03-03T21:19:07.965696","MEAN_MOTION":13.24415663,"ECCENTRICITY":0.00020598,"INCLINATION":86.4933,"RA_OF_ASC_NODE":317.9154,"ARG_OF_PERICENTER":80.5735,"MEAN_ANOMALY":279.5632,"EPHEMERIS_TYPE":0,"CLASSIFICATION_TYPE":"U","NORAD_CAT_ID":66955,"ELEMENT_SET_NO":999,"REV_AT_EPOCH":1140,"BSTAR":0.00017399492,"MEAN_MOTION_DOT":8.9e-7,"MEAN_MOTION_DDOT":0},{"OBJECT_NAME":"HULIANWANG DIGUI-117","OBJECT_ID":"2025-287D","EPOCH":"2026-03-03T22:57:05.853600","MEAN_MOTION":13.2441377,"ECCENTRICITY":0.00013534,"INCLINATION":86.4993,"RA_OF_ASC_NODE":317.9433,"ARG_OF_PERICENTER":22.6557,"MEAN_ANOMALY":337.4636,"EPHEMERIS_TYPE":0,"CLASSIFICATION_TYPE":"U","NORAD_CAT_ID":66956,"ELEMENT_SET_NO":999,"REV_AT_EPOCH":1141,"BSTAR":0.00016984238,"MEAN_MOTION_DOT":8.8e-7,"MEAN_MOTION_DDOT":0},{"OBJECT_NAME":"HULIANWANG DIGUI-118","OBJECT_ID":"2025-287E","EPOCH":"2026-03-03T22:46:11.821152","MEAN_MOTION":13.24415107,"ECCENTRICITY":0.00020407,"INCLINATION":86.4969,"RA_OF_ASC_NODE":317.9175,"ARG_OF_PERICENTER":80.5691,"MEAN_ANOMALY":279.5673,"EPHEMERIS_TYPE":0,"CLASSIFICATION_TYPE":"U","NORAD_CAT_ID":66957,"ELEMENT_SET_NO":999,"REV_AT_EPOCH":1141,"BSTAR":0.00018705074,"MEAN_MOTION_DOT":9.5e-7,"MEAN_MOTION_DDOT":0},{"OBJECT_NAME":"HULIANWANG DIGUI-119","OBJECT_ID":"2025-295A","EPOCH":"2026-03-03T01:44:58.227360","MEAN_MOTION":13.51029834,"ECCENTRICITY":6.09e-5,"INCLINATION":50.0099,"RA_OF_ASC_NODE":47.5635,"ARG_OF_PERICENTER":106.8761,"MEAN_ANOMALY":253.2187,"EPHEMERIS_TYPE":0,"CLASSIFICATION_TYPE":"U","NORAD_CAT_ID":67059,"ELEMENT_SET_NO":999,"REV_AT_EPOCH":1136,"BSTAR":0.00010846,"MEAN_MOTION_DOT":-6.1e-7,"MEAN_MOTION_DDOT":0},{"OBJECT_NAME":"HULIANWANG DIGUI-120","OBJECT_ID":"2025-295B","EPOCH":"2026-03-03T19:11:55.421664","MEAN_MOTION":13.50760701,"ECCENTRICITY":0.00010899,"INCLINATION":50.0053,"RA_OF_ASC_NODE":44.769,"ARG_OF_PERICENTER":322.3204,"MEAN_ANOMALY":37.7601,"EPHEMERIS_TYPE":0,"CLASSIFICATION_TYPE":"U","NORAD_CAT_ID":67060,"ELEMENT_SET_NO":999,"REV_AT_EPOCH":1146,"BSTAR":0.00010823522,"MEAN_MOTION_DOT":-6.2e-7,"MEAN_MOTION_DDOT":0},{"OBJECT_NAME":"HULIANWANG DIGUI-121","OBJECT_ID":"2025-295C","EPOCH":"2026-03-03T01:36:12.832416","MEAN_MOTION":13.51357169,"ECCENTRICITY":0.0001948,"INCLINATION":49.9999,"RA_OF_ASC_NODE":47.5304,"ARG_OF_PERICENTER":282.1047,"MEAN_ANOMALY":77.9616,"EPHEMERIS_TYPE":0,"CLASSIFICATION_TYPE":"U","NORAD_CAT_ID":67061,"ELEMENT_SET_NO":999,"REV_AT_EPOCH":1136,"BSTAR":0.00010909,"MEAN_MOTION_DOT":-6.1e-7,"MEAN_MOTION_DDOT":0},{"OBJECT_NAME":"HULIANWANG DIGUI-122","OBJECT_ID":"2025-295D","EPOCH":"2026-03-03T17:15:34.818336","MEAN_MOTION":13.5105316,"ECCENTRICITY":0.00018351,"INCLINATION":50.0007,"RA_OF_ASC_NODE":45.0158,"ARG_OF_PERICENTER":118.3707,"MEAN_ANOMALY":241.7359,"EPHEMERIS_TYPE":0,"CLASSIFICATION_TYPE":"U","NORAD_CAT_ID":67062,"ELEMENT_SET_NO":999,"REV_AT_EPOCH":1145,"BSTAR":0.00010637872,"MEAN_MOTION_DOT":-6.3e-7,"MEAN_MOTION_DDOT":0},{"OBJECT_NAME":"HULIANWANG DIGUI-123","OBJECT_ID":"2025-295E","EPOCH":"2026-03-03T04:39:39.508992","MEAN_MOTION":13.51163893,"ECCENTRICITY":7.42e-5,"INCLINATION":50.0058,"RA_OF_ASC_NODE":46.9026,"ARG_OF_PERICENTER":273.8979,"MEAN_ANOMALY":86.1818,"EPHEMERIS_TYPE":0,"CLASSIFICATION_TYPE":"U","NORAD_CAT_ID":67063,"ELEMENT_SET_NO":999,"REV_AT_EPOCH":1138,"BSTAR":0.00013716,"MEAN_MOTION_DOT":-4.2e-7,"MEAN_MOTION_DDOT":0},{"OBJECT_NAME":"HULIANWANG DIGUI-124","OBJECT_ID":"2025-295F","EPOCH":"2026-03-03T20:29:47.961312","MEAN_MOTION":13.51154708,"ECCENTRICITY":6.339e-5,"INCLINATION":50.0011,"RA_OF_ASC_NODE":44.349,"ARG_OF_PERICENTER":348.9504,"MEAN_ANOMALY":11.1363,"EPHEMERIS_TYPE":0,"CLASSIFICATION_TYPE":"U","NORAD_CAT_ID":67064,"ELEMENT_SET_NO":999,"REV_AT_EPOCH":1147,"BSTAR":0.00011421635,"MEAN_MOTION_DOT":-5.7e-7,"MEAN_MOTION_DDOT":0},{"OBJECT_NAME":"HULIANWANG DIGUI-125","OBJECT_ID":"2025-295G","EPOCH":"2026-03-03T20:20:19.765536","MEAN_MOTION":13.51200294,"ECCENTRICITY":0.00012642,"INCLINATION":49.9987,"RA_OF_ASC_NODE":44.3079,"ARG_OF_PERICENTER":15.7402,"MEAN_ANOMALY":344.3519,"EPHEMERIS_TYPE":0,"CLASSIFICATION_TYPE":"U","NORAD_CAT_ID":67065,"ELEMENT_SET_NO":999,"REV_AT_EPOCH":1147,"BSTAR":0.0001128054,"MEAN_MOTION_DOT":-5.8e-7,"MEAN_MOTION_DDOT":0},{"OBJECT_NAME":"HULIANWANG DIGUI-126","OBJECT_ID":"2025-295H","EPOCH":"2026-03-03T07:44:21.704352","MEAN_MOTION":13.51245278,"ECCENTRICITY":0.0001436,"INCLINATION":49.9966,"RA_OF_ASC_NODE":46.1982,"ARG_OF_PERICENTER":46.9301,"MEAN_ANOMALY":313.17,"EPHEMERIS_TYPE":0,"CLASSIFICATION_TYPE":"U","NORAD_CAT_ID":67066,"ELEMENT_SET_NO":999,"REV_AT_EPOCH":1140,"BSTAR":7.9664e-5,"MEAN_MOTION_DOT":-8.0e-7,"MEAN_MOTION_DDOT":0},{"OBJECT_NAME":"HULIANWANG DIGUI-127","OBJECT_ID":"2025-295J","EPOCH":"2026-03-03T19:54:46.704672","MEAN_MOTION":13.51069581,"ECCENTRICITY":6.963e-5,"INCLINATION":50.0015,"RA_OF_ASC_NODE":44.2319,"ARG_OF_PERICENTER":23.4353,"MEAN_ANOMALY":336.656,"EPHEMERIS_TYPE":0,"CLASSIFICATION_TYPE":"U","NORAD_CAT_ID":67067,"ELEMENT_SET_NO":999,"REV_AT_EPOCH":1147,"BSTAR":-0.00028853251,"MEAN_MOTION_DOT":-3.19e-6,"MEAN_MOTION_DDOT":0},{"OBJECT_NAME":"HULIANWANG DIGUI-128","OBJECT_ID":"2025-311A","EPOCH":"2026-03-03T08:20:00.446496","MEAN_MOTION":13.35891953,"ECCENTRICITY":0.0002353,"INCLINATION":50.0101,"RA_OF_ASC_NODE":135.2234,"ARG_OF_PERICENTER":353.5774,"MEAN_ANOMALY":6.5071,"EPHEMERIS_TYPE":0,"CLASSIFICATION_TYPE":"U","NORAD_CAT_ID":67236,"ELEMENT_SET_NO":999,"REV_AT_EPOCH":926,"BSTAR":0.00012954,"MEAN_MOTION_DOT":-6.0e-7,"MEAN_MOTION_DDOT":0}]
